NORAD_CAT_ID,OBJECT_NAME,OBJECT_TYPE,EPOCH,MEAN_MOTION,ECCENTRICITY,INCLINATION,RA_OF_ASC_NODE,ARG_OF_PERICENTER,MEAN_ANOMALY,BSTAR,MEAN_MOTION_DOT,MEAN_MOTION_DDOT,TLE_LINE0,TLE_LINE1,TLE_LINE2,SEMIMAJOR_AXIS,PERIOD,APOGEE,PERIGEE,DECAYED
53778.0,STARLINK-4709,PAYLOAD,2023-11-19 12:46:03,15.08838814,0.0001363,53.2189,94.9525,93.5893,266.5255,8.8564e-05,1.122e-05,0.0,0 STARLINK-4709,1 53778U 22111F   23323.53198159  .00001122  00000-0  88564-4 0  9992,2 53778  53.2189  94.9525 0001363  93.5893 266.5255 15.08838814 66643,6917.884,95.438,540.692,538.806,0.0
53778.0,STARLINK-4709,PAYLOAD,2023-11-19 15:56:49,15.0884121,0.000135,53.2189,94.3581,93.1965,266.9182,0.00010524,1.387e-05,0.0,0 STARLINK-4709,1 53778U 22111F   23323.66445984  .00001387  00000-0  10524-3 0  9990,2 53778  53.2189  94.3581 0001350  93.1965 266.9182 15.08841210 65850,6917.877,95.437,540.676,538.808,0.0
53778.0,STARLINK-4709,PAYLOAD,2023-11-20 01:29:08,15.08837362,0.0001349,53.2189,92.5746,93.7042,266.4105,2.0591e-05,4e-07,0.0,0 STARLINK-4709,1 53778U 22111F   23324.06190469  .00000040  00000-0  20591-4 0  9991,2 53778  53.2189  92.5746 0001349  93.7042 266.4105 15.08837362 65913,6917.888,95.438,540.687,538.82,0.0
53778.0,STARLINK-4709,PAYLOAD,2023-11-20 14:12:13,15.08839659,0.0001379,53.2193,90.1961,94.8734,265.2416,3.5251e-05,2.73e-06,0.0,0 STARLINK-4709,1 53778U 22111F   23324.59182387  .00000273  00000-0  35251-4 0  9996,2 53778  53.2193  90.1961 0001379  94.8734 265.2416 15.08839659 66806,6917.881,95.438,540.7,538.792,0.0
53778.0,STARLINK-4709,PAYLOAD,2023-11-20 17:22:59,15.08842324,0.0001381,53.2188,89.6007,93.9978,266.1172,5.4313e-05,5.77e-06,0.0,0 STARLINK-4709,1 53778U 22111F   23324.72430145  .00000577  00000-0  54313-4 0  9996,2 53778  53.2188  89.6007 0001381  93.9978 266.1172 15.08842324 66821,6917.873,95.437,540.694,538.783,0.0
53778.0,STARLINK-4709,PAYLOAD,2023-11-21 10:52:14,15.08837913,0.0001354,53.2189,86.3293,89.66,270.4548,-3.5173e-06,-3.44e-06,0.0,0 STARLINK-4709,1 53778U 22111F   23325.45294683 -.00000344  00000-0 -35173-5 0  9990,2 53778  53.2189  86.3293 0001354  89.6600 270.4548 15.08837913 66123,6917.887,95.438,540.688,538.815,0.0
53778.0,STARLINK-4709,PAYLOAD,2023-11-21 12:27:37,15.08839417,0.0001375,53.2191,86.0322,90.0409,270.0741,1.0431e-05,-1.22e-06,0.0,0 STARLINK-4709,1 53778U 22111F   23325.51918580 -.00000122  00000-0  10431-4 0  9998,2 53778  53.2191  86.0322 0001375  90.0409 270.0741 15.08839417 66944,6917.882,95.438,540.698,538.796,0.0
53778.0,STARLINK-4709,PAYLOAD,2023-11-21 17:13:46,15.08847943,0.0001552,53.2193,85.1404,95.0375,265.0794,1.8165e-05,1e-08,0.0,0 STARLINK-4709,1 53778U 22111F   23325.71790003  .00000001  00000-0  18165-4 0  9995,2 53778  53.2193  85.1404 0001552  95.0375 265.0794 15.08847943 66979,6917.856,95.437,540.795,538.647,0.0
53778.0,STARLINK-4709,PAYLOAD,2023-11-22 13:53:47,15.08849405,0.0001695,53.2189,81.2737,68.913,291.2043,0.0001031,1.354e-05,0.0,0 STARLINK-4709,1 53778U 22111F   23326.57901728  .00001354  00000-0  10310-3 0  9993,2 53778  53.2189  81.2737 0001695  68.9130 291.2043 15.08849405 67105,6917.852,95.437,540.889,538.544,0.0
53778.0,STARLINK-4709,PAYLOAD,2023-11-22 15:29:09,15.08861563,0.0001394,53.2191,80.977,80.2131,279.9018,0.0002085,3.034e-05,0.0,0 STARLINK-4709,1 53778U 22111F   23326.64524596  .00003034  00000-0  20850-3 0  9992,2 53778  53.2191  80.9770 0001394  80.2131 279.9018 15.08861563 66300,6917.814,95.436,540.644,538.715,0.0
53778.0,STARLINK-4709,PAYLOAD,2023-11-23 12:09:11,15.08836,0.0001358,53.2194,77.1124,83.5286,276.586,4.2683e-05,3.91e-06,0.0,0 STARLINK-4709,1 53778U 22111F   23327.50638683  .00000391  00000-0  42683-4 0  9993,2 53778  53.2194  77.1124 0001358  83.5286 276.5860 15.08836000 66431,6917.893,95.438,540.697,538.818,0.0
53778.0,STARLINK-4709,PAYLOAD,2023-11-23 13:44:34,15.08840993,0.0001375,53.2191,76.8138,91.3854,268.7295,1.3474e-06,-2.66e-06,0.0,0 STARLINK-4709,1 53778U 22111F   23327.57262443 -.00000266  00000-0  13474-5 0  9996,2 53778  53.2191  76.8138 0001375  91.3854 268.7295 15.08840993 67258,6917.877,95.437,540.694,538.791,0.0
53778.0,STARLINK-4709,PAYLOAD,2023-11-24 13:35:22,15.08842936,0.0001584,53.2188,72.3549,76.087,284.0299,-0.00011543,-2.125e-05,0.0,0 STARLINK-4709,1 53778U 22111F   23328.56623137 -.00002125  00000-0 -11543-3 0  9997,2 53778  53.2188  72.3549 0001584  76.0870 284.0299 15.08842936 67402,6917.871,95.437,540.832,538.641,0.0
53778.0,STARLINK-4709,PAYLOAD,2023-11-24 18:21:30,15.08851651,0.0001372,53.2186,71.458,95.3444,264.7705,-4.5392e-05,-1.011e-05,0.0,0 STARLINK-4709,1 53778U 22111F   23328.76494065 -.00001011  00000-0 -45392-4 0  9998,2 53778  53.2186  71.4580 0001372  95.3444 264.7705 15.08851651 66625,6917.845,95.437,540.659,538.761,0.0
53778.0,STARLINK-4709,PAYLOAD,2023-11-25 13:26:08,15.08848581,0.000173,53.2198,67.8938,103.7829,256.3356,0.00023119,3.394e-05,0.0,0 STARLINK-4709,1 53778U 22111F   23329.55981941  .00003394  00000-0  23119-3 0  9996,2 53778  53.2198  67.8938 0001730 103.7829 256.3356 15.08848581 67553,6917.854,95.437,540.916,538.522,0.0
53778.0,STARLINK-4709,PAYLOAD,2023-11-25 16:36:54,15.08854561,0.0001535,53.2186,67.2949,113.3348,246.7806,0.0002603,3.859e-05,0.0,0 STARLINK-4709,1 53778U 22111F   23329.69229279  .00003859  00000-0  26030-3 0  9991,2 53778  53.2186  67.2949 0001535 113.3348 246.7806 15.08854561 67572,6917.836,95.437,540.763,538.639,0.0
53778.0,STARLINK-4709,PAYLOAD,2023-11-26 11:41:31,15.08852076,0.0001574,53.2185,63.7226,120.0368,240.078,0.0001113,1.484e-05,0.0,0 STARLINK-4709,1 53778U 22111F   23330.48717422  .00001484  00000-0  11130-3 0  9999,2 53778  53.2185  63.7226 0001574 120.0368 240.0780 15.08852076 66880,6917.843,95.437,540.797,538.62,0.0
53778.0,STARLINK-4709,PAYLOAD,2023-11-26 13:16:54,15.08851858,0.0001692,53.2192,63.4273,118.3812,241.7351,0.00012465,1.697e-05,0.0,0 STARLINK-4709,1 53778U 22111F   23330.55341370  .00001697  00000-0  12465-3 0  9990,2 53778  53.2192  63.4273 0001692 118.3812 241.7351 15.08851858 67703,6917.844,95.437,540.88,538.539,0.0
53778.0,STARLINK-4709,PAYLOAD,2023-11-27 11:32:21,15.08828738,0.0001639,53.2187,59.2628,110.5578,249.559,-0.00020298,-3.516e-05,0.0,0 STARLINK-4709,1 53778U 22111F   23331.48080316 -.00003516  00000-0 -20298-3 0  9990,2 53778  53.2187  59.2628 0001639 110.5578 249.5590 15.08828738 67036,6917.915,95.438,540.914,538.646,0.0
53778.0,STARLINK-4709,PAYLOAD,2023-11-27 13:07:44,15.08827296,0.0001452,53.2193,58.9667,97.9031,262.2126,-0.00021853,-3.763e-05,0.0,0 STARLINK-4709,1 53778U 22111F   23331.54704542 -.00003763  00000-0 -21853-3 0  9993,2 53778  53.2193  58.9667 0001452  97.9031 262.2126 15.08827296 67852,6917.919,95.438,540.789,538.78,0.0
53778.0,STARLINK-4709,PAYLOAD,2023-11-28 11:23:07,15.08846853,0.0001904,53.2206,54.8115,67.5805,292.5389,9.2265e-06,-1.41e-06,0.0,0 STARLINK-4709,1 53778U 22111F   23332.47438915 -.00000141  00000-0  92265-5 0  9997,2 53778  53.2206  54.8115 0001904  67.5805 292.5389 15.08846853 67187,6917.859,95.437,541.042,538.407,0.0
53778.0,STARLINK-4709,PAYLOAD,2023-11-29 11:13:55,15.08830923,0.0001657,53.2193,50.3452,74.8698,285.2477,0.00021885,3.196e-05,0.0,0 STARLINK-4709,1 53778U 22111F   23333.46799796  .00003196  00000-0  21885-3 0  9994,2 53778  53.2193  50.3452 0001657  74.8698 285.2477 15.08830923 67338,6917.908,95.438,540.919,538.627,0.0
53778.0,STARLINK-4709,PAYLOAD,2023-11-29 12:49:18,15.08833305,0.0001865,53.2198,50.0483,63.2608,296.8575,0.00024293,3.58e-05,0.0,0 STARLINK-4709,1 53778U 22111F   23333.53423757  .00003580  00000-0  24293-3 0  9996,2 53778  53.2198  50.0483 0001865  63.2608 296.8575 15.08833305 68153,6917.901,95.438,541.056,538.476,0.0
53778.0,STARLINK-4709,PAYLOAD,2023-11-30 12:40:05,15.08850315,0.0002041,53.2195,45.5921,65.8378,294.2827,-8.774e-05,-1.685e-05,0.0,0 STARLINK-4709,1 53778U 22111F   23334.52783657 -.00001685  00000-0 -87740-4 0  9997,2 53778  53.2195  45.5921 0002041  65.8378 294.2827 15.08850315 67493,6917.849,95.437,541.126,538.302,0.0
53778.0,STARLINK-4709,PAYLOAD,2023-12-01 10:55:29,15.08840355,0.0001931,53.22,41.4292,68.7079,291.412,-1.2433e-05,-4.86e-06,0.0,0 STARLINK-4709,1 53778U 22111F   23335.45520248 -.00000486  00000-0 -12433-4 0  9990,2 53778  53.2200  41.4292 0001931  68.7079 291.4120 15.08840355 67637,6917.879,95.438,541.08,538.408,0.0
53778.0,STARLINK-4709,PAYLOAD,2023-12-02 10:46:13,15.08879953,0.0001677,53.2186,36.972,102.5104,257.6075,0.00056226,8.681e-05,0.0,0 STARLINK-4709,1 53778U 22111F   23336.44877302  .00008681  00000-0  56226-3 0  9996,2 53778  53.2186  36.9720 0001677 102.5104 257.6075 15.08879953 67783,6917.758,95.435,540.783,538.463,0.0
53778.0,STARLINK-4709,PAYLOAD,2023-12-03 10:37:04,15.08822787,0.0001449,53.2203,32.5104,78.122,281.9935,-0.0002458,-4.196e-05,0.0,0 STARLINK-4709,1 53778U 22111F   23337.44241296 -.00004196  00000-0 -24580-3 0  9991,2 53778  53.2203  32.5104 0001449  78.1220 281.9935 15.08822787 67930,6917.933,95.439,540.8,538.796,0.0
53778.0,STARLINK-4709,PAYLOAD,2023-12-03 13:47:50,15.08826576,0.0001213,53.2192,31.9133,76.9915,283.1213,-0.00020401,-3.532e-05,0.0,0 STARLINK-4709,1 53778U 22111F   23337.57488973 -.00003532  00000-0 -20401-3 0  9991,2 53778  53.2192  31.9133 0001213  76.9915 283.1213 15.08826576 68763,6917.921,95.438,540.626,538.947,0.0
53778.0,STARLINK-4709,PAYLOAD,2023-12-04 10:27:50,15.0884484,0.0001587,53.2197,28.0494,92.9666,267.1508,-0.00020655,-3.574e-05,0.0,0 STARLINK-4709,1 53778U 22111F   23338.43599886 -.00003574  00000-0 -20655-3 0  9990,2 53778  53.2197  28.0494 0001587  92.9666 267.1508 15.08844840 68088,6917.866,95.437,540.828,538.633,0.0
53778.0,STARLINK-4709,PAYLOAD,2023-12-05 03:57:05,15.08827648,0.0001488,53.2188,24.7772,70.1668,289.9485,0.00028598,4.265e-05,0.0,0 STARLINK-4709,1 53778U 22111F   23339.16464299  .00004265  00000-0  28598-3 0  9990,2 53778  53.2188  24.7772 0001488  70.1668 289.9485 15.08827648 68195,6917.918,95.438,540.813,538.754,0.0
